[{"OBJECT_NAME":"STARLINK-6054","OBJECT_ID":"2023-064T","EPOCH":"2026-03-09T19:26:06.901440","MEAN_MOTION":14.9832823,"ECCENTRICITY":0.000296,"INCLINATION":69.9997,"RA_OF_ASC_NODE":103.9981,"ARG_OF_PERICENTER":271.5025,"MEAN_ANOMALY":88.5795,"EPHEMERIS_TYPE":0,"CLASSIFICATION_TYPE":"U","NORAD_CAT_ID":56465,"ELEMENT_SET_NO":999,"REV_AT_EPOCH":15625,"BSTAR":-1.4506663e-5,"MEAN_MOTION_DOT":-2.66e-6,"MEAN_MOTION_DDOT":0},{"OBJECT_NAME":"COSMOS 886 DEB","OBJECT_ID":"1976-126BY","EPOCH":"2026-03-09T15:12:54.874944","MEAN_MOTION":13.31069333,"ECCENTRICITY":0.0856265,"INCLINATION":65.8136,"RA_OF_ASC_NODE":247.1366,"ARG_OF_PERICENTER":73.8679,"MEAN_ANOMALY":295.4822,"EPHEMERIS_TYPE":0,"CLASSIFICATION_TYPE":"U","NORAD_CAT_ID":18907,"ELEMENT_SET_NO":999,"REV_AT_EPOCH":83453,"BSTAR":0.00052411479,"MEAN_MOTION_DOT":2.066e-5,"MEAN_MOTION_DDOT":0}]
